#dP2020 10  2  0  0  0.00000000      97 __u+U IGS14 FIT  IAC
## 2125 432000.00000000   900.00000000 59124 0.0000000000000
+  122   C01C02C03C04C05C06C07C08C09C10C11C12C13C14C16C19C20
+        C21C22C23C24C25C26C27C28C29C30C32C33C34C35C36C37C38
+        C39C40C43C44C45C46C60E01E02E03E04E05E07E08E09E11E12
+        E13E14E15E18E19E21E24E25E26E27E30E31E33E36G01G02G03
+        G04G05G06G07G08G09G10G11G12G13G15G16G17G18G19G20G21
+        G22G23G24G25G26G27G28G29G30G31G32J01J02J03J07R01R02
+        R03R04R05R07R08R11R12R13R14R15R16R17R18R19R20R21R22
+        R23R24R26  0  0  0  0  0  0  0  0  0  0  0  0  0  0
++        13 12 13 12 13  8  8  8  9  8  7  7  7  7  8  7  7
++         7  7  7  7  7  7  7  7  7  7  7  7  7  8  8  7 11
++        10 12  8  9  9  9 20  4  4  4  4  4  4  4  4  4  4
++         4  4  4  4  4  4  4  4  4  4  4  4  4  4  3  3  3
++         3  3  3  3  3  3  3  3  3  3  3  3  3  3  3  3  3
++         3  4  3  3  3  3  3  3  3  3  3  9  9  9 13  6  5
++         5  5  5  5  5  5  5  6  5  5  6  5  5  6  6  5  6
++         5  5  8  0  0  0  0  0  0  0  0  0  0  0  0  0  0
%c M  cc GPS ccc cccc cccc cccc cccc ccccc ccccc ccccc ccccc
%c cc cc ccc ccc cccc cccc cccc cccc ccccc ccccc ccccc ccccc
%f  1.2500000  1.025000000  0.00000000000  0.000000000000000
%f  0.0000000  0.000000000  0.00000000000  0.000000000000000
%i    0    0    0    0      0      0      0      0         0
%i    0    0    0    0      0      0      0      0         0
/* INFORMATION & ANALYSIS CENTER (IAC)            FINAL DATA
/* S/V CLOCKS ARE ALIGNED TO GNSS TIME                      
/* G:C1WC2W R:C1PC2P E:C1XC5X C:C2IC6I J:C1CC2S             
/* PCV:IGS14_2118 OL/AL:FES2004  NONE     YN ORB:CoN CLK:CoN
*  2020 10 02 17 15  0.00000000
PC01 -34359.188260  24488.046254    491.665127    -84.412867
PC02   4355.441617  41901.625303   -986.795866      0.036351
PC03 -14691.421338  39486.849688   -906.373353    798.032167
PC04 -39612.635528  14483.268518    156.575715    245.100639
PC05  21908.237574  35996.942473  -1216.093416    136.727494
PC06 -12145.375032  36827.138927 -15569.594967     26.415660
PC07 -13297.896266  22954.846106  33002.503413    -64.138099
PC08 -26038.672903  27733.022045 -18499.025380   -573.121008
PC09  -3501.924478  41779.240501   -981.075291    847.727966
PC10   2428.969819  28818.790678  31020.984673   -173.092952
PC11  10834.421440  14434.942141 -21241.458635   -658.834334
PC12   -548.602264  26658.025568  -8265.509995    536.935307
PC13 -12364.096836  28814.411955 -28256.881026    676.222545
PC14  21452.878172  17816.423491   1687.443997    -21.426278
PC16  -9617.691435  38770.056331 -13079.763517   -592.441245
PC19 -23290.429605 -11129.635085 -10568.120061    567.470464
PC20 -16878.602189 -21254.835952   6431.841244   -852.157497
PC21    109.953258  19142.737642 -20303.031278   -688.603692
PC22 -16325.245212   5738.354782 -21892.225202   -769.480347
PC23  25075.900352 -11277.103681  -4760.833520   -879.667746
PC24   9799.853783  13619.884587  22298.677064   -722.857079
PC25  25120.787356    639.442463  12118.141645   -777.261311
PC26  -9535.889859  17719.800687  19347.286506    852.125660
PC27   7059.494849 -26989.778980   -908.667456    408.946779
PC28  15712.548251 -15681.278250 -16898.902721   -163.096627
PC29 -15342.757051  -4152.164156  22931.078459    291.923151
PC30  -6320.612266 -22482.123712  15283.847121    384.078617
PC32   -188.063488 -19127.100789  20322.138371   -904.685997
PC33  23374.838970  11075.151040  10493.710524   -804.632866
PC34   6660.999832  22091.732662 -15690.311025   -841.229288
PC35 -15272.328778  15974.710469  17021.094574   -626.436341
PC36 -24997.479968  -1376.978814 -12292.873494   -894.819057
PC37  10674.388716 -17439.774925 -18957.381594   -908.362291
PC38 -21886.034237  29590.706674 -20719.731185    103.861639
PC39  -5904.375435  40027.279658 -11685.464223     23.261292
PC40   -361.462971  24811.338270  34137.581667     86.966769
PC43  15338.788565   4678.602203 -22841.504798   -398.852749
PC44  -6277.484279  27155.510349   1066.499899   -189.428823
PC45 -25033.724111  11370.443196   4843.868348    245.812691
PC46 -10567.104943 -13130.913420 -22228.989015    611.213479
PC60   7332.294934  41524.607770    721.597728 999999.999999
PE01 -11573.304255  14080.348999  23332.760412   -953.073315
PE02  11450.616367 -14112.603490 -23353.475639    165.949944
PE03   4416.730685 -23166.397747  17873.368825   -349.333218
PE04  10016.358204  27822.298607  -1367.740316   -619.044958
PE05  16452.963544  -4865.856105  24117.938924   -341.189329
PE07 -18781.114172 -16112.516494 -16233.687547   -443.589360
PE08 -10358.618183 -27697.904308   1115.221177   6112.275465
PE09  18810.439749  15946.786057  16384.147137   5911.813684
PE11  16159.147803   5164.672278 -24265.872401   5937.069759
PE12    207.421914  21523.397871 -20317.987265   5576.365214
PE13 -15943.296116  -5333.291151  24365.502966    404.057137
PE14  18239.903459 -11410.737973 -23208.186694  -1176.466138
PE15   -389.130980 -21392.572731  20454.607887    850.174256
PE18  -9250.947371  19806.537576  12677.113507  -1285.221570
PE19  -5943.845759  21623.155813 -19320.714607     93.149276
PE21 -27066.952615   3762.739200  11380.602512   -624.595383
PE24  26910.205173   9442.775038   7892.976688   -508.322959
PE25  27143.883973  -3641.690525 -11218.419296   -517.543844
PE26 -22271.684322  14144.684577  13435.526656   2658.782653
PE27 -27177.106601  -9032.270813  -7478.423802    121.758753
PE30 -10619.418401 -16632.306685 -22064.119355   3537.507207
PE31  11308.375757  16463.648595  21862.688120   -474.539075
PE33 -15400.969153  24874.775354  -4511.361881   -462.618273
PE36  22121.203459 -13841.591479 -13964.312238    499.731948
PG01 -10682.647992  19922.988280 -13907.667311     34.650072
PG02  21427.632496 -14615.093986  -5000.508956   -524.363047
PG03   -404.029582  15806.767637 -21436.417661   -315.407818
PG04  -1190.214938  25908.942318  -5618.084748   -141.127909
PG05  20415.224507  -4806.896229  16253.731942    -22.463528
PG06  20197.444118  -1199.426845 -17172.976570   -330.393334
PG07   6189.099211  14587.756914  21587.046014   -385.064846
PG08  -7235.669756  20539.819953  15031.678976    -50.062321
PG09   8039.895588  24609.152224   5834.857356   -294.560854
PG10 -23766.063872 -11805.751565   3032.398258   -469.693318
PG11 -11143.609996  24321.121698   -124.112476   -147.997042
PG12   3345.407779 -14905.200933 -21973.739959     59.398029
PG13  13036.435462 -12743.850894  19147.829052     50.877472
PG15   5085.128924 -21757.837169  13733.708720   -199.669371
PG16 -19592.333321   3325.541058  17621.193866   -217.016900
PG17  13659.259459  11859.208035 -19035.966096    334.208264
PG18  -6570.252123 -13826.318303  21689.437753    300.512910
PG19  14811.255899   4135.787925 -21954.541118    -97.069154
PG20 -17067.647393 -14924.510814  13956.095726    526.538074
PG21 -21610.452012  14488.272625   5187.747747     53.514603
PG22  -8891.740413  13503.640318 -20857.168144   -747.984275
PG23 -17708.280298 -15671.780655  12079.522126     78.459619
PG24  12100.132937 -21075.706118 -10461.491158    -19.312873
PG25  -9847.425980 -17385.165902 -17867.223406     -0.741833
PG26 -25456.942005  -3843.997151   6983.301169    288.687428
PG27 -12861.185198   9701.336471  20900.439492   -409.320358
PG28  22842.208787  13309.836808   1930.448088    672.253996
PG29  -3990.459714 -26017.082949   3324.535571   -207.241574
PG30  15342.018607   7383.422271  20482.019030   -312.678453
PG31 -21722.140216   2537.475614 -15438.616372    -72.418566
PG32 -15120.750637 -10600.345222 -19058.772057    353.232218
PJ01 -21554.670882  19626.509838 -25935.243599   -342.883743
PJ02 -30506.539510  23139.440624  22552.687028     -4.541482
PJ03 -28888.425627  26363.216538  20813.816818     -1.609509
PJ07 -25347.710855  33705.756946    -29.754072      0.100287
PR01 -15435.099770  -4118.261194 -19886.698465     68.444787
PR02  -1533.258384  14465.001110 -20903.876135    448.187562
PR03  11306.227528  21357.766468  -8049.855434     23.074828
PR04  17532.702021  16075.778190   9222.982011     56.582376
PR05  13862.763369   1805.907711  21334.288379     58.607692
PR07 -11636.398184 -21442.698755   7555.367428    -40.531433
PR08 -17544.914270 -16117.562804  -9093.826322    -54.922560
PR11 -21713.104263  -3479.129241 -12860.711120    -39.727444
PR12 -24812.478828   4836.037187   3515.037832    168.587643
PR13 -13895.417986  10788.056333  18460.930308    -44.661627
PR14   5456.639461  10324.706095  22698.326757     56.161510
PR15  21179.207588   3950.987202  13685.543412    106.999156
PR16  24438.438910  -5694.788056  -4224.158632     -6.885131
PR17  -2239.605821  21286.506315 -13907.229815    363.008004
PR18   7655.109088   8204.042073 -22890.106685     51.395775
PR19  13579.437618  -8241.636254 -19954.494132   -113.713026
PR20  12045.130177 -22221.233703  -3553.010542   -423.199250
PR21   1666.496616 -20689.262613  14799.921469   -156.300344
PR22  -8125.262006  -7153.341413  23087.818013    -75.707395
PR23 -13978.212658  15100.270892  15073.336376    335.812308
PR24 -11639.004695  22537.822657   2827.765494     15.395451
PR26  13083.531778 -19970.383989  -8920.494123   -361.746085
EOF
